{"fetched_at":"2026-07-22T07:09:23.749Z","source":"https://celestrak.org/NORAD/elements/gp.php?GROUP=planet&FORMAT=JSON","constellation":"superdove","records":[{"OBJECT_NAME":"FLOCK 4G-23","OBJECT_ID":"2025-009AQ","EPOCH":"2026-07-21T11:40:38.650944","CLASSIFICATION_TYPE":"U","MEAN_MOTION":15.35103312,"ECCENTRICITY":0.00035521,"INCLINATION":97.3913,"RA_OF_ASC_NODE":284.1909,"ARG_OF_PERICENTER":159.0153,"MEAN_ANOMALY":201.1236,"EPHEMERIS_TYPE":0,"NORAD_CAT_ID":62647,"ELEMENT_SET_NO":999,"REV_AT_EPOCH":8418,"BSTAR":0.0012714283,"MEAN_MOTION_DOT":0.00043432,"MEAN_MOTION_DDOT":0},{"OBJECT_NAME":"FLOCK 4G-34","OBJECT_ID":"2025-009AT","EPOCH":"2026-07-21T11:18:07.145856","CLASSIFICATION_TYPE":"U","MEAN_MOTION":15.2985095,"ECCENTRICITY":0.0002854,"INCLINATION":97.3952,"RA_OF_ASC_NODE":283.8904,"ARG_OF_PERICENTER":148.8841,"MEAN_ANOMALY":211.2569,"EPHEMERIS_TYPE":0,"NORAD_CAT_ID":62650,"ELEMENT_SET_NO":999,"REV_AT_EPOCH":8415,"BSTAR":0.00026507282,"MEAN_MOTION_DOT":0.00007588,"MEAN_MOTION_DDOT":0},{"OBJECT_NAME":"FLOCK 4G-21","OBJECT_ID":"2025-009AU","EPOCH":"2026-07-21T04:20:54.745152","CLASSIFICATION_TYPE":"U","MEAN_MOTION":15.33136017,"ECCENTRICITY":0.0003619,"INCLINATION":97.3976,"RA_OF_ASC_NODE":284.6367,"ARG_OF_PERICENTER":174.7001,"MEAN_ANOMALY":185.428,"EPHEMERIS_TYPE":0,"NORAD_CAT_ID":62651,"ELEMENT_SET_NO":999,"REV_AT_EPOCH":8416,"BSTAR":0.00096035686,"MEAN_MOTION_DOT":0.00030759,"MEAN_MOTION_DDOT":0},{"OBJECT_NAME":"FLOCK 4G-31","OBJECT_ID":"2025-009AV","EPOCH":"2026-07-21T04:11:19.537152","CLASSIFICATION_TYPE":"U","MEAN_MOTION":15.29654046,"ECCENTRICITY":0.0002417,"INCLINATION":97.3958,"RA_OF_ASC_NODE":283.566,"ARG_OF_PERICENTER":147.9955,"MEAN_ANOMALY":212.1432,"EPHEMERIS_TYPE":0,"NORAD_CAT_ID":62652,"ELEMENT_SET_NO":999,"REV_AT_EPOCH":8410,"BSTAR":0.00028069475,"MEAN_MOTION_DOT":0.00007991,"MEAN_MOTION_DDOT":0},{"OBJECT_NAME":"FLOCK 4G-4","OBJECT_ID":"2025-009BC","EPOCH":"2026-07-21T04:50:48.556032","CLASSIFICATION_TYPE":"U","MEAN_MOTION":15.32410678,"ECCENTRICITY":0.00051796,"INCLINATION":97.3927,"RA_OF_ASC_NODE":283.4272,"ARG_OF_PERICENTER":173.5615,"MEAN_ANOMALY":186.5694,"EPHEMERIS_TYPE":0,"NORAD_CAT_ID":62659,"ELEMENT_SET_NO":999,"REV_AT_EPOCH":14171,"BSTAR":0.0009312117,"MEAN_MOTION_DOT":0.00029152,"MEAN_MOTION_DDOT":0},{"OBJECT_NAME":"FLOCK 4G-6","OBJECT_ID":"2025-009BD","EPOCH":"2026-07-21T03:53:31.462944","CLASSIFICATION_TYPE":"U","MEAN_MOTION":15.30042459,"ECCENTRICITY":0.00035293,"INCLINATION":97.3929,"RA_OF_ASC_NODE":283.4071,"ARG_OF_PERICENTER":180.8966,"MEAN_ANOMALY":179.2269,"EPHEMERIS_TYPE":0,"NORAD_CAT_ID":62660,"ELEMENT_SET_NO":999,"REV_AT_EPOCH":14169,"BSTAR":0.000243924,"MEAN_MOTION_DOT":0.00007018,"MEAN_MOTION_DDOT":0},{"OBJECT_NAME":"FLOCK 4G-2","OBJECT_ID":"2025-009BE","EPOCH":"2026-07-21T11:33:04.830624","CLASSIFICATION_TYPE":"U","MEAN_MOTION":15.30410238,"ECCENTRICITY":0.0004371,"INCLINATION":97.3996,"RA_OF_ASC_NODE":284.3756,"ARG_OF_PERICENTER":180.0952,"MEAN_ANOMALY":180.0289,"EPHEMERIS_TYPE":0,"NORAD_CAT_ID":62661,"ELEMENT_SET_NO":999,"REV_AT_EPOCH":14177,"BSTAR":0.00032231985,"MEAN_MOTION_DOT":0.00009407,"MEAN_MOTION_DDOT":0},{"OBJECT_NAME":"FLOCK 4G-5","OBJECT_ID":"2025-009BG","EPOCH":"2026-07-21T05:05:53.536416","CLASSIFICATION_TYPE":"U","MEAN_MOTION":15.3097373,"ECCENTRICITY":0.00040051,"INCLINATION":97.4016,"RA_OF_ASC_NODE":284.5143,"ARG_OF_PERICENTER":163.6517,"MEAN_ANOMALY":196.4854,"EPHEMERIS_TYPE":0,"NORAD_CAT_ID":62663,"ELEMENT_SET_NO":999,"REV_AT_EPOCH":8414,"BSTAR":0.00024055987,"MEAN_MOTION_DOT":0.00007123,"MEAN_MOTION_DDOT":0},{"OBJECT_NAME":"FLOCK 4G-1","OBJECT_ID":"2025-009BK","EPOCH":"2026-07-21T04:55:29.908128","CLASSIFICATION_TYPE":"U","MEAN_MOTION":15.30266478,"ECCENTRICITY":0.0004612,"INCLINATION":97.4009,"RA_OF_ASC_NODE":284.0793,"ARG_OF_PERICENTER":178.2221,"MEAN_ANOMALY":181.9037,"EPHEMERIS_TYPE":0,"NORAD_CAT_ID":62666,"ELEMENT_SET_NO":999,"REV_AT_EPOCH":8411,"BSTAR":0.00029189963,"MEAN_MOTION_DOT":0.00008474,"MEAN_MOTION_DDOT":0},{"OBJECT_NAME":"FLOCK 4G-14","OBJECT_ID":"2025-009BL","EPOCH":"2026-07-21T04:08:39.583104","CLASSIFICATION_TYPE":"U","MEAN_MOTION":15.29810826,"ECCENTRICITY":0.00048007,"INCLINATION":97.4013,"RA_OF_ASC_NODE":283.8397,"ARG_OF_PERICENTER":173.8662,"MEAN_ANOMALY":186.2638,"EPHEMERIS_TYPE":0,"NORAD_CAT_ID":62667,"ELEMENT_SET_NO":999,"REV_AT_EPOCH":8409,"BSTAR":0.00027730005,"MEAN_MOTION_DOT":0.00007933,"MEAN_MOTION_DDOT":0},{"OBJECT_NAME":"FLOCK 4G-10","OBJECT_ID":"2025-009BP","EPOCH":"2026-07-21T04:23:48.107616","CLASSIFICATION_TYPE":"U","MEAN_MOTION":15.2991241,"ECCENTRICITY":0.0004352,"INCLINATION":97.3911,"RA_OF_ASC_NODE":283.1405,"ARG_OF_PERICENTER":189.3198,"MEAN_ANOMALY":170.7962,"EPHEMERIS_TYPE":0,"NORAD_CAT_ID":62670,"ELEMENT_SET_NO":999,"REV_AT_EPOCH":14173,"BSTAR":0.00027216606,"MEAN_MOTION_DOT":0.00007809,"MEAN_MOTION_DDOT":0},{"OBJECT_NAME":"FLOCK 4G-36","OBJECT_ID":"2025-009BU","EPOCH":"2026-07-21T12:06:59.178240","CLASSIFICATION_TYPE":"U","MEAN_MOTION":15.29897195,"ECCENTRICITY":0.00049475,"INCLINATION":97.4001,"RA_OF_ASC_NODE":284.0918,"ARG_OF_PERICENTER":178.0034,"MEAN_ANOMALY":182.1228,"EPHEMERIS_TYPE":0,"NORAD_CAT_ID":62675,"ELEMENT_SET_NO":999,"REV_AT_EPOCH":8414,"BSTAR":0.00034517551,"MEAN_MOTION_DOT":0.00009922,"MEAN_MOTION_DDOT":0},{"OBJECT_NAME":"FLOCK 4G-15","OBJECT_ID":"2025-009BX","EPOCH":"2026-07-21T04:25:31.270080","CLASSIFICATION_TYPE":"U","MEAN_MOTION":15.30003617,"ECCENTRICITY":0.00050581,"INCLINATION":97.4005,"RA_OF_ASC_NODE":283.9167,"ARG_OF_PERICENTER":176.6016,"MEAN_ANOMALY":183.526,"EPHEMERIS_TYPE":0,"NORAD_CAT_ID":62678,"ELEMENT_SET_NO":999,"REV_AT_EPOCH":14174,"BSTAR":0.00056660591,"MEAN_MOTION_DOT":0.00016404,"MEAN_MOTION_DDOT":0},{"OBJECT_NAME":"FLOCK 4G-30","OBJECT_ID":"2025-009BY","EPOCH":"2026-07-21T04:14:35.675520","CLASSIFICATION_TYPE":"U","MEAN_MOTION":15.34240323,"ECCENTRICITY":0.00048051,"INCLINATION":97.39,"RA_OF_ASC_NODE":283.4607,"ARG_OF_PERICENTER":179.2533,"MEAN_ANOMALY":180.8718,"EPHEMERIS_TYPE":0,"NORAD_CAT_ID":62679,"ELEMENT_SET_NO":999,"REV_AT_EPOCH":14175,"BSTAR":0.00097878924,"MEAN_MOTION_DOT":0.00032473,"MEAN_MOTION_DDOT":0},{"OBJECT_NAME":"FLOCK 4G-18","OBJECT_ID":"2025-009BZ","EPOCH":"2026-07-21T11:01:16.924224","CLASSIFICATION_TYPE":"U","MEAN_MOTION":15.32491244,"ECCENTRICITY":0.00067201,"INCLINATION":97.3994,"RA_OF_ASC_NODE":284.1301,"ARG_OF_PERICENTER":190.1929,"MEAN_ANOMALY":169.9178,"EPHEMERIS_TYPE":0,"NORAD_CAT_ID":62680,"ELEMENT_SET_NO":999,"REV_AT_EPOCH":14178,"BSTAR":0.0010120436,"MEAN_MOTION_DOT":0.00031789,"MEAN_MOTION_DDOT":0},{"OBJECT_NAME":"FLOCK 4G-17","OBJECT_ID":"2025-009CA","EPOCH":"2026-07-21T05:02:30.826464","CLASSIFICATION_TYPE":"U","MEAN_MOTION":15.30159788,"ECCENTRICITY":0.00046676,"INCLINATION":97.3911,"RA_OF_ASC_NODE":283.4071,"ARG_OF_PERICENTER":191.6702,"MEAN_ANOMALY":168.4432,"EPHEMERIS_TYPE":0,"NORAD_CAT_ID":62681,"ELEMENT_SET_NO":999,"REV_AT_EPOCH":14175,"BSTAR":0.0002727932,"MEAN_MOTION_DOT":0.00007888,"MEAN_MOTION_DDOT":0}]}
