{"epoch":1784710044,"count":18256,"objects":[{"id":"62647","name":"FLOCK 4G 23","type":"PAYLOAD","l1":"1 62647U 25009AQ  26202.48655846  .00043432  00000-0  12714-2 0  9992","l2":"2 62647  97.3913 284.1909 0003552 159.0153 201.1236 15.35103312 84181"},{"id":"62650","name":"FLOCK 4G 34","type":"PAYLOAD","l1":"1 62650U 25009AT  26202.47091604  .00007588  00000-0  26507-3 0  9999","l2":"2 62650  97.3952 283.8904 0002854 148.8841 211.2569 15.29850950 84151"},{"id":"62651","name":"FLOCK 4G 21","type":"PAYLOAD","l1":"1 62651U 25009AU  26202.18118918  .00030759  00000-0  96036-3 0  9996","l2":"2 62651  97.3976 284.6367 0003619 174.7001 185.4280 15.33136017 84165"},{"id":"62652","name":"FLOCK 4G 31","type":"PAYLOAD","l1":"1 62652U 25009AV  26202.17453168  .00007991  00000-0  28069-3 0  9998","l2":"2 62652  97.3958 283.5660 0002417 147.9955 212.1432 15.29654046 84108"},{"id":"62659","name":"FLOCK 4G 4","type":"PAYLOAD","l1":"1 62659U 25009BC  26202.20195088  .00029152  00000-0  93121-3 0  9997","l2":"2 62659  97.3927 283.4272 0005180 173.5615 186.5694 15.32410678141717"},{"id":"62660","name":"FLOCK 4G 6","type":"PAYLOAD","l1":"1 62660U 25009BD  26202.16216971  .00007018  00000-0  24392-3 0  9990","l2":"2 62660  97.3929 283.4071 0003529 180.8966 179.2269 15.30042459141693"},{"id":"62661","name":"FLOCK 4G 2","type":"PAYLOAD","l1":"1 62661U 25009BE  26202.48130591  .00009407  00000-0  32232-3 0  9995","l2":"2 62661  97.3996 284.3756 0004371 180.0952 180.0289 15.30410238141776"},{"id":"62663","name":"FLOCK 4G 5","type":"PAYLOAD","l1":"1 62663U 25009BG  26202.21242519  .00007123  00000-0  24056-3 0  9990","l2":"2 62663  97.4016 284.5143 0004005 163.6517 196.4854 15.30973730 84149"},{"id":"62666","name":"FLOCK 4G 1","type":"PAYLOAD","l1":"1 62666U 25009BK  26202.20520727  .00008474  00000-0  29190-3 0  9996","l2":"2 62666  97.4009 284.0793 0004612 178.2221 181.9037 15.30266478 84111"},{"id":"62667","name":"FLOCK 4G 14","type":"PAYLOAD","l1":"1 62667U 25009BL  26202.17268036  .00007933  00000-0  27730-3 0  9992","l2":"2 62667  97.4013 283.8397 0004801 173.8662 186.2638 15.29810826 84096"},{"id":"62670","name":"FLOCK 4G 10","type":"PAYLOAD","l1":"1 62670U 25009BP  26202.18319569  .00007809  00000-0  27217-3 0  9997","l2":"2 62670  97.3911 283.1405 0004352 189.3198 170.7962 15.29912410141731"},{"id":"62675","name":"FLOCK 4G 36","type":"PAYLOAD","l1":"1 62675U 25009BU  26202.50485160  .00009922  00000-0  34518-3 0  9999","l2":"2 62675  97.4001 284.0918 0004948 178.0034 182.1228 15.29897195 84146"},{"id":"62678","name":"FLOCK 4G 15","type":"PAYLOAD","l1":"1 62678U 25009BX  26202.18438970  .00016404  00000-0  56661-3 0  9999","l2":"2 62678  97.4005 283.9167 0005058 176.6016 183.5260 15.30003617141745"},{"id":"62679","name":"FLOCK 4G 30","type":"PAYLOAD","l1":"1 62679U 25009BY  26202.17680180  .00032473  00000-0  97879-3 0  9991","l2":"2 62679  97.3900 283.4607 0004805 179.2533 180.8718 15.34240323141755"},{"id":"62680","name":"FLOCK 4G 18","type":"PAYLOAD","l1":"1 62680U 25009BZ  26202.45922366  .00031789  00000-0  10120-2 0  9991","l2":"2 62680  97.3994 284.1301 0006720 190.1929 169.9178 15.32491244141787"},{"id":"62681","name":"FLOCK 4G 17","type":"PAYLOAD","l1":"1 62681U 25009CA  26202.21007901  .00007888  00000-0  27279-3 0  9992","l2":"2 62681  97.3911 283.4071 0004668 191.6702 168.4432 15.30159788141753"}]}